NORAD_CAT_ID,OBJECT_NAME,OBJECT_TYPE,EPOCH,MEAN_MOTION,ECCENTRICITY,INCLINATION,RA_OF_ASC_NODE,ARG_OF_PERICENTER,MEAN_ANOMALY,BSTAR,MEAN_MOTION_DOT,MEAN_MOTION_DDOT,TLE_LINE0,TLE_LINE1,TLE_LINE2,SEMIMAJOR_AXIS,PERIOD,APOGEE,PERIGEE,DECAYED
56804.0,STARLINK-6069,PAYLOAD,2023-06-14 12:00:00,15.75803128,0.0003425,70.0033,13.3402,265.0802,0.6684,-0.0064308,-0.0089512,0.0,0 STARLINK-6069,1 56804U 23078AP  23165.50001157 -.00895120  00000-0 -64308-2 0  9999,2 56804  70.0033  13.3402 0003425 265.0802   0.6684 15.75803128  2543,6720.484,91.382,344.651,340.047,0.0
56804.0,STARLINK-6069,PAYLOAD,2023-06-14 14:00:01,15.75666132,0.0003509,70.0036,13.104,267.8324,110.4788,-0.0068118,-0.0093768,0.0,0 STARLINK-6069,1 56804U 23078AP  23165.58334491 -.00937680  00000-0 -68118-2 0  9998,2 56804  70.0036  13.1040 0003509 267.8324 110.4788 15.75666132  1304,6720.873,91.39,345.097,340.38,0.0
56804.0,STARLINK-6069,PAYLOAD,2023-06-14 22:00:00,15.74965245,0.0003362,70.0037,12.1593,274.7287,193.3927,-0.0064515,-0.00868327,0.0,0 STARLINK-6069,1 56804U 23078AP  23165.91667824 -.00868327  00000-0 -64515-2 0  9992,2 56804  70.0037  12.1593 0003362 274.7287 193.3927 15.74965245  1300,6722.867,91.431,346.992,342.472,0.0
56804.0,STARLINK-6069,PAYLOAD,2023-06-15 04:00:00,15.74522909,0.0003347,70.0033,11.4514,274.506,170.4305,-0.0072685,-0.0095015,0.0,0 STARLINK-6069,1 56804U 23078AP  23166.16667824 -.00950150  00000-0 -72685-2 0  9993,2 56804  70.0033  11.4514 0003347 274.5060 170.4305 15.74522909  2641,6724.126,91.456,348.242,343.741,0.0
56804.0,STARLINK-6069,PAYLOAD,2023-06-15 12:00:02,15.73846159,0.0003343,70.0034,10.5087,266.4802,266.945,-0.0069684,-0.00890917,0.0,0 STARLINK-6069,1 56804U 23078AP  23166.50002315 -.00890917  00000-0 -69684-2 0  9998,2 56804  70.0034  10.5087 0003343 266.4802 266.9450 15.73846159  2699,6726.054,91.496,350.167,345.67,0.0
56804.0,STARLINK-6069,PAYLOAD,2023-06-15 14:00:01,15.73714257,0.0003515,70.0036,10.2731,265.668,19.6666,-0.0074535,-0.00941776,0.0,0 STARLINK-6069,1 56804U 23078AP  23166.58334491 -.00941776  00000-0 -74535-2 0  9990,2 56804  70.0036  10.2731 0003515 265.6680  19.6666 15.73714257  1302,6726.429,91.503,350.659,345.93,0.0
56804.0,STARLINK-6069,PAYLOAD,2023-06-15 20:00:01,15.73172655,0.0003576,70.0031,9.5667,270.8533,350.1637,-0.0070863,-0.00881195,0.0,0 STARLINK-6069,1 56804U 23078AP  23166.83334491 -.00881195  00000-0 -70863-2 0  9996,2 56804  70.0031   9.5667 0003576 270.8533 350.1637 15.73172655  1309,6727.973,91.535,352.244,347.432,0.0
56804.0,STARLINK-6069,PAYLOAD,2023-06-16 04:00:00,15.72559966,0.0003787,70.0025,8.6255,272.1912,75.6666,-0.0078288,-0.00941463,0.0,0 STARLINK-6069,1 56804U 23078AP  23167.16667824 -.00941463  00000-0 -78288-2 0  9996,2 56804  70.0025   8.6255 0003787 272.1912  75.6666 15.72559966  2805,6729.721,91.57,354.134,349.037,0.0
56804.0,STARLINK-6069,PAYLOAD,2023-06-16 12:00:00,15.71893103,0.0003787,70.0026,7.685,268.3137,165.6176,-0.0076723,-0.00901193,0.0,0 STARLINK-6069,1 56804U 23078AP  23167.50001157 -.00901193  00000-0 -76723-2 0  9993,2 56804  70.0026   7.6850 0003787 268.3137 165.6176 15.71893103  2856,6731.624,91.609,356.038,350.94,0.0
56804.0,STARLINK-6069,PAYLOAD,2023-06-16 14:00:01,15.71748511,0.0003671,70.0028,7.4502,266.2506,279.0728,-0.0080137,-0.00931957,0.0,0 STARLINK-6069,1 56804U 23078AP  23167.58334491 -.00931957  00000-0 -80137-2 0  9996,2 56804  70.0028   7.4502 0003671 266.2506 279.0728 15.71748511  1303,6732.037,91.618,356.373,351.43,0.0
56804.0,STARLINK-6069,PAYLOAD,2023-06-16 22:00:00,15.71044172,0.0003714,70.0028,6.5106,270.9757,359.4642,-0.0075182,-0.00856519,0.0,0 STARLINK-6069,1 56804U 23078AP  23167.91667824 -.00856519  00000-0 -75182-2 0  9996,2 56804  70.0028   6.5106 0003714 270.9757 359.4642 15.71044172  1301,6734.049,91.659,358.415,353.413,0.0
56804.0,STARLINK-6069,PAYLOAD,2023-06-17 09:04:50,15.70511398,0.0003962,70.0026,5.2116,284.6505,75.4252,-0.0039417,-0.00460342,0.0,0 STARLINK-6069,1 56804U 23078AP  23168.37836240 -.00460342  00000-0 -39417-2 0  9993,2 56804  70.0026   5.2116 0003962 284.6505  75.4252 15.70511398  2990,6735.571,91.69,360.105,354.768,0.0
56804.0,STARLINK-6069,PAYLOAD,2023-06-17 12:08:19,15.70312898,0.0003739,70.0025,4.8533,269.3442,90.7326,-0.0036055,-0.00419584,0.0,0 STARLINK-6069,1 56804U 23078AP  23168.50577965 -.00419584  00000-0 -36055-2 0  9991,2 56804  70.0025   4.8533 0003739 269.3442  90.7326 15.70312898  3424,6736.139,91.701,360.523,355.485,0.0
56804.0,STARLINK-6069,PAYLOAD,2023-06-17 16:43:34,15.70121906,0.0003416,70.0027,4.3159,267.0553,93.0251,-0.0024181,-0.00283698,0.0,0 STARLINK-6069,1 56804U 23078AP  23168.69692321 -.00283698  00000-0 -24181-2 0  9997,2 56804  70.0027   4.3159 0003416 267.0553  93.0251 15.70121906  3044,6736.685,91.713,360.852,356.249,0.0
56804.0,STARLINK-6069,PAYLOAD,2023-06-17 21:18:49,15.70028419,0.000356,70.0025,3.7785,269.5638,90.5149,-0.0011891,-0.00141429,0.0,0 STARLINK-6069,1 56804U 23078AP  23168.88807213 -.00141429  00000-0 -11891-2 0  9995,2 56804  70.0025   3.7785 0003560 269.5638  90.5149 15.70028419  3482,6736.953,91.718,361.216,356.419,0.0
56804.0,STARLINK-6069,PAYLOAD,2023-06-18 04:00:00,15.69960539,0.0003539,70.0008,2.995,267.2981,226.8317,-0.00075953,-0.00090701,0.0,0 STARLINK-6069,1 56804U 23078AP  23169.16667824 -.00090701  00000-0 -75953-3 0  9995,2 56804  70.0008   2.9950 0003539 267.2981 226.8317 15.69960539  3117,6737.147,91.722,361.396,356.628,0.0
56804.0,STARLINK-6069,PAYLOAD,2023-06-18 12:00:00,15.69928291,0.0003622,70.0009,2.0577,261.321,316.1441,9.5406e-06,9.35e-06,0.0,0 STARLINK-6069,1 56804U 23078AP  23169.50001157  .00000935  00000-0  95406-5 0  9999,2 56804  70.0009   2.0577 0003622 261.3210 316.1441 15.69928291  3162,6737.239,91.724,361.544,356.664,0.0
56804.0,STARLINK-6069,PAYLOAD,2023-06-18 12:36:21,15.69933254,0.0003215,70.0023,1.9871,257.118,102.9657,7.2289e-05,8.491e-05,0.0,0 STARLINK-6069,1 56804U 23078AP  23169.52525076  .00008491  00000-0  72289-4 0  9990,2 56804  70.0023   1.9871 0003215 257.1180 102.9657 15.69933254  3581,6737.225,91.724,361.256,356.924,0.0
56804.0,STARLINK-6069,PAYLOAD,2023-06-18 22:00:00,15.69883858,0.0003528,70.0007,0.8859,270.6775,140.9753,0.00071502,0.00086512,0.0,0 STARLINK-6069,1 56804U 23078AP  23169.91667824  .00086512  00000-0  71502-3 0  9997,2 56804  70.0007   0.8859 0003528 270.6775 140.9753 15.69883858  1305,6737.366,91.727,361.608,356.854,0.0
56804.0,STARLINK-6069,PAYLOAD,2023-06-19 08:29:08,15.69962858,0.0003524,70.0013,359.6587,266.8059,93.2733,0.00039994,0.00048232,0.0,0 STARLINK-6069,1 56804U 23078AP  23170.35356663  .00048232  00000-0  39994-3 0  9999,2 56804  70.0013 359.6587 0003524 266.8059  93.2733 15.69962858  3301,6737.14,91.722,361.379,356.631,0.0
56804.0,STARLINK-6069,PAYLOAD,2023-06-19 13:04:23,15.69932557,0.0003391,70.0014,359.1207,258.23,101.8516,0.00035466,0.00042664,0.0,0 STARLINK-6069,1 56804U 23078AP  23170.54471966  .00042664  00000-0  35466-3 0  9997,2 56804  70.0014 359.1207 0003391 258.2300 101.8516 15.69932557  3748,6737.227,91.724,361.377,356.807,0.0
56804.0,STARLINK-6069,PAYLOAD,2023-06-19 20:00:01,15.69881323,0.0003656,70.0007,358.3089,271.8534,278.98,0.00047866,0.00057639,0.0,0 STARLINK-6069,1 56804U 23078AP  23170.83334491  .00057639  00000-0  47866-3 0  9995,2 56804  70.0007 358.3089 0003656 271.8534 278.9800 15.69881323  3378,6737.374,91.727,361.702,356.775,0.0
56804.0,STARLINK-6069,PAYLOAD,2023-06-19 22:00:00,15.69881156,0.000365,70.0007,358.0745,273.0142,28.646,0.00063824,0.00077105,0.0,0 STARLINK-6069,1 56804U 23078AP  23170.91667824  .00077105  00000-0  63824-3 0  9995,2 56804  70.0007 358.0745 0003650 273.0142  28.6460 15.69881156  1304,6737.374,91.727,361.698,356.78,0.0
56804.0,STARLINK-6069,PAYLOAD,2023-06-20 12:00:00,15.69951362,0.0003622,70.0006,356.4343,266.3759,91.099,-0.00020974,-0.00025386,0.0,0 STARLINK-6069,1 56804U 23078AP  23171.50001157 -.00025386  00000-0 -20974-3 0  9997,2 56804  70.0006 356.4343 0003622 266.3759  91.0990 15.69951362  3487,6737.173,91.723,361.478,356.598,0.0
56804.0,STARLINK-6069,PAYLOAD,2023-06-20 14:00:01,15.69974881,0.0003604,70.0007,356.1999,267.3743,200.934,-0.00070933,-0.00084831,0.0,0 STARLINK-6069,1 56804U 23078AP  23171.58334491 -.00084831  00000-0 -70933-3 0  9995,2 56804  70.0007 356.1999 0003604 267.3743 200.9340 15.69974881  1306,6737.106,91.721,361.399,356.543,0.0
56804.0,STARLINK-6069,PAYLOAD,2023-06-20 22:00:00,15.69887751,0.0003499,70.0007,355.2625,274.3345,277.3372,0.00056273,0.000679,0.0,0 STARLINK-6069,1 56804U 23078AP  23171.91667824  .00067900  00000-0  56273-3 0  9998,2 56804  70.0007 355.2625 0003499 274.3345 277.3372 15.69887751  1302,6737.355,91.726,361.578,356.863,0.0
56804.0,STARLINK-6069,PAYLOAD,2023-06-21 01:46:26,15.69930429,0.0003511,70.0009,354.8202,271.6514,88.4279,0.00036203,0.00043557,0.0,0 STARLINK-6069,1 56804U 23078AP  23172.07392105  .00043557  00000-0  36203-3 0  9996,2 56804  70.0009 354.8202 0003511 271.6514  88.4279 15.69930429  3572,6737.233,91.724,361.463,356.733,0.0
56804.0,STARLINK-6069,PAYLOAD,2023-06-21 12:28:42,15.69923875,0.0003695,70.0008,353.5663,274.1045,85.9728,0.00033529,0.00040299,0.0,0 STARLINK-6069,1 56804U 23078AP  23172.51994013  .00040299  00000-0  33529-3 0  9999,2 56804  70.0008 353.5663 0003695 274.1045  85.9728 15.69923875  3644,6737.252,91.724,361.606,356.627,0.0
56804.0,STARLINK-6069,PAYLOAD,2023-06-21 14:00:27,15.6992887,0.0003682,70.0009,353.3871,274.1891,85.8884,0.00034887,0.00041957,0.0,0 STARLINK-6069,1 56804U 23078AP  23172.58365656  .00041957  00000-0  34887-3 0  9991,2 56804  70.0009 353.3871 0003682 274.1891  85.8884 15.69928870  4068,6737.238,91.724,361.583,356.622,0.0
56804.0,STARLINK-6069,PAYLOAD,2023-06-21 18:35:43,15.6995034,0.0003602,70.0011,352.8497,269.0267,91.0516,0.00058348,0.00070618,0.0,0 STARLINK-6069,1 56804U 23078AP  23172.77480422  .00070618  00000-0  58348-3 0  9995,2 56804  70.0011 352.8497 0003602 269.0267  91.0516 15.69950340  3686,6737.176,91.723,361.468,356.614,0.0
